start=new Date('2021-09-02T00:00:00.000Z').valueOf();
sats=[{"MEAN_MOTION":"15.06381080","SITE":"AFETR","CENTER_NAME":"EARTH","ELEMENT_SET_NO":"999","REV_AT_EPOCH":"7639","MEAN_MOTION_DDOT":"0.0000000000000","OBJECT_NAME":"STARLINK-1371","RCS_SIZE":"LARGE","CLASSIFICATION_TYPE":"U","INCLINATION":"53.0551","TIME_SYSTEM":"UTC","TLE_LINE1":"1 45542U 20025M   21244.66106795  .00001062  00000-0  90240-4 0  9990","TLE_LINE2":"2 45542  53.0551 313.8912 0000988  86.3191 273.7911 15.06381080 76398","ARG_OF_PERICENTER":"86.3191","APOAPSIS":"547.956","SEMIMAJOR_AXIS":"6925.407","ECCENTRICITY":"0.00009880","EPOCH":"2021-09-01T15:51:56.270880","OBJECT_TYPE":"PAYLOAD","PERIOD":"95.593","LAUNCH_DATE":"2020-04-22","MEAN_MOTION_DOT":"0.00001062","FILE":"3107096","REF_FRAME":"TEME","MEAN_ELEMENT_THEORY":"SGP4","COUNTRY_CODE":"US","BSTAR":"0.00009024000000","GP_ID":"183924422","DECAY_DATE":null,"EPHEMERIS_TYPE":"0","NORAD_CAT_ID":"45542","OBJECT_ID":"2020-025M","PERIAPSIS":"546.587","RA_OF_ASC_NODE":"313.8912","MEAN_ANOMALY":"273.7911"},{"MEAN_MOTION_DOT":"0.00001177","REF_FRAME":"TEME","FILE":"3107096","LAUNCH_DATE":"2020-04-22","BSTAR":"0.00009792300000","GP_ID":"183925171","COUNTRY_CODE":"US","MEAN_ELEMENT_THEORY":"SGP4","OBJECT_ID":"2020-025N","NORAD_CAT_ID":"45543","EPHEMERIS_TYPE":"0","DECAY_DATE":null,"RA_OF_ASC_NODE":"313.7304","MEAN_ANOMALY":"264.7061","PERIAPSIS":"546.629","REV_AT_EPOCH":"7549","ELEMENT_SET_NO":"999","CENTER_NAME":"EARTH","SITE":"AFETR","OBJECT_NAME":"STARLINK-1372","MEAN_MOTION_DDOT":"0.0000000000000","MEAN_MOTION":"15.06385602","TIME_SYSTEM":"UTC","TLE_LINE1":"1 45543U 20025N   21244.69792193  .00001177  00000-0  97923-4 0  9999","CLASSIFICATION_TYPE":"U","INCLINATION":"53.0536","ARG_OF_PERICENTER":"95.4032","TLE_LINE2":"2 45543  53.0536 313.7304 0000908  95.4032 264.7061 15.06385602 75493","RCS_SIZE":"LARGE","SEMIMAJOR_AXIS":"6925.393","APOAPSIS":"547.887","OBJECT_TYPE":"PAYLOAD","PERIOD":"95.593","EPOCH":"2021-09-01T16:45:00.454752","ECCENTRICITY":"0.00009080"},{"EPHEMERIS_TYPE":"0","DECAY_DATE":null,"OBJECT_ID":"2020-025P","NORAD_CAT_ID":"45544","PERIAPSIS":"546.551","MEAN_ANOMALY":"268.7955","RA_OF_ASC_NODE":"313.6505","LAUNCH_DATE":"2020-04-22","REF_FRAME":"TEME","FILE":"3107096","MEAN_MOTION_DOT":"0.00001629","COUNTRY_CODE":"US","MEAN_ELEMENT_THEORY":"SGP4","GP_ID":"183925920","BSTAR":"0.00012827000000","APOAPSIS":"547.930","SEMIMAJOR_AXIS":"6925.376","EPOCH":"2021-09-01T17:11:32.899200","ECCENTRICITY":"0.00009960","PERIOD":"95.593","OBJECT_TYPE":"PAYLOAD","MEAN_MOTION":"15.06391194","OBJECT_NAME":"STARLINK-1373","MEAN_MOTION_DDOT":"0.0000000000000","REV_AT_EPOCH":"7640","ELEMENT_SET_NO":"999","SITE":"AFETR","CENTER_NAME":"EARTH","RCS_SIZE":"LARGE","ARG_OF_PERICENTER":"91.3148","TLE_LINE2":"2 45544  53.0547 313.6505 0000996  91.3148 268.7955 15.06391194 76409","TIME_SYSTEM":"UTC","TLE_LINE1":"1 45544U 20025P   21244.71635300  .00001629  00000-0  12827-3 0  9990","INCLINATION":"53.0547","CLASSIFICATION_TYPE":"U"},{"PERIAPSIS":"546.658","MEAN_ANOMALY":"260.2126","RA_OF_ASC_NODE":"313.8623","EPHEMERIS_TYPE":"0","DECAY_DATE":null,"OBJECT_ID":"2020-025Q","NORAD_CAT_ID":"45545","COUNTRY_CODE":"US","MEAN_ELEMENT_THEORY":"SGP4","GP_ID":"183925674","BSTAR":"0.00014676000000","LAUNCH_DATE":"2020-04-22","REF_FRAME":"TEME","FILE":"3107096","MEAN_MOTION_DOT":"0.00001905","EPOCH":"2021-09-01T16:02:33.122688","ECCENTRICITY":"0.00008670","OBJECT_TYPE":"PAYLOAD","PERIOD":"95.593","APOAPSIS":"547.859","SEMIMAJOR_AXIS":"6925.393","RCS_SIZE":"LARGE","ARG_OF_PERICENTER":"99.8960","TLE_LINE2":"2 45545  53.0561 313.8623 0000867  99.8960 260.2126 15.06385416 76374","TIME_SYSTEM":"UTC","TLE_LINE1":"1 45545U 20025Q   21244.66843892  .00001905  00000-0  14676-3 0  9993","INCLINATION":"53.0561","CLASSIFICATION_TYPE":"U","MEAN_MOTION":"15.06385416","OBJECT_NAME":"STARLINK-1374","MEAN_MOTION_DDOT":"0.0000000000000","REV_AT_EPOCH":"7637","ELEMENT_SET_NO":"999","CENTER_NAME":"EARTH","SITE":"AFETR"},{"MEAN_MOTION":"15.06398511","OBJECT_NAME":"STARLINK-1375","MEAN_MOTION_DDOT":"0.0000000000000","REV_AT_EPOCH":"7639","ELEMENT_SET_NO":"999","CENTER_NAME":"EARTH","SITE":"AFETR","RCS_SIZE":"LARGE","ARG_OF_PERICENTER":"111.1821","TLE_LINE2":"2 45546  53.0541 313.8143 0000915 111.1821 248.9266 15.06398511 76398","TIME_SYSTEM":"UTC","TLE_LINE1":"1 45546U 20025R   21244.67947198  .00001342  00000-0  10898-3 0  9996","INCLINATION":"53.0541","CLASSIFICATION_TYPE":"U","APOAPSIS":"547.852","SEMIMAJOR_AXIS":"6925.353","EPOCH":"2021-09-01T16:18:26.379072","ECCENTRICITY":"0.00009150","OBJECT_TYPE":"PAYLOAD","PERIOD":"95.592","LAUNCH_DATE":"2020-04-22","REF_FRAME":"TEME","FILE":"3107096","MEAN_MOTION_DOT":"0.00001342","COUNTRY_CODE":"US","MEAN_ELEMENT_THEORY":"SGP4","GP_ID":"183924922","BSTAR":"0.00010898000000","EPHEMERIS_TYPE":"0","DECAY_DATE":null,"OBJECT_ID":"2020-025R","NORAD_CAT_ID":"45546","PERIAPSIS":"546.584","MEAN_ANOMALY":"248.9266","RA_OF_ASC_NODE":"313.8143"},{"PERIAPSIS":"546.532","MEAN_ANOMALY":"258.5881","RA_OF_ASC_NODE":"314.7236","EPHEMERIS_TYPE":"0","DECAY_DATE":null,"OBJECT_ID":"2020-025S","NORAD_CAT_ID":"45547","COUNTRY_CODE":"US","MEAN_ELEMENT_THEORY":"SGP4","GP_ID":"183903034","BSTAR":"-0.00001514400000","LAUNCH_DATE":"2020-04-22","REF_FRAME":"TEME","FILE":"3106970","MEAN_MOTION_DOT":"-0.00000507","EPOCH":"2021-09-01T11:26:33.008352","ECCENTRICITY":"0.00010310","OBJECT_TYPE":"PAYLOAD","PERIOD":"95.593","APOAPSIS":"547.960","SEMIMAJOR_AXIS":"6925.381","RCS_SIZE":"LARGE","ARG_OF_PERICENTER":"101.5223","TLE_LINE2":"2 45547  53.0540 314.7236 0001031 101.5223 258.5881 15.06389496 75784","TIME_SYSTEM":"UTC","TLE_LINE1":"1 45547U 20025S   21244.47677093 -.00000507  00000-0 -15144-4 0  9993","CLASSIFICATION_TYPE":"U","INCLINATION":"53.0540","MEAN_MOTION":"15.06389496","OBJECT_NAME":"STARLINK-1377","MEAN_MOTION_DDOT":"0.0000000000000","REV_AT_EPOCH":"7578","ELEMENT_SET_NO":"999","SITE":"AFETR","CENTER_NAME":"EARTH"},{"PERIOD":"95.593","OBJECT_TYPE":"PAYLOAD","ECCENTRICITY":"0.00008830","EPOCH":"2021-09-01T16:50:19.523040","SEMIMAJOR_AXIS":"6925.403","APOAPSIS":"547.880","TLE_LINE2":"2 45548  53.0552 313.7117 0000883 113.9856 246.1225 15.06382148 76398","ARG_OF_PERICENTER":"113.9856","INCLINATION":"53.0552","CLASSIFICATION_TYPE":"U","TLE_LINE1":"1 45548U 20025T   21244.70161485  .00001468  00000-0  11748-3 0  9993","TIME_SYSTEM":"UTC","RCS_SIZE":"LARGE","MEAN_MOTION_DDOT":"0.0000000000000","OBJECT_NAME":"STARLINK-1378","SITE":"AFETR","CENTER_NAME":"EARTH","ELEMENT_SET_NO":"999","REV_AT_EPOCH":"7639","MEAN_MOTION":"15.06382148","MEAN_ANOMALY":"246.1225","RA_OF_ASC_NODE":"313.7117","PERIAPSIS":"546.657","NORAD_CAT_ID":"45548","OBJECT_ID":"2020-025T","DECAY_DATE":null,"EPHEMERIS_TYPE":"0","GP_ID":"183925421","BSTAR":"0.00011748000000","MEAN_ELEMENT_THEORY":"SGP4","COUNTRY_CODE":"US","FILE":"3107096","REF_FRAME":"TEME","MEAN_MOTION_DOT":"0.00001468","LAUNCH_DATE":"2020-04-22"},{"MEAN_MOTION_DOT":"0.00001157","FILE":"3107096","REF_FRAME":"TEME","LAUNCH_DATE":"2020-04-22","BSTAR":"0.00009658900000","GP_ID":"183926174","MEAN_ELEMENT_THEORY":"SGP4","COUNTRY_CODE":"US","NORAD_CAT_ID":"45549","OBJECT_ID":"2020-025U","DECAY_DATE":null,"EPHEMERIS_TYPE":"0","RA_OF_ASC_NODE":"313.6985","MEAN_ANOMALY":"253.0394","PERIAPSIS":"546.516","SITE":"AFETR","CENTER_NAME":"EARTH","ELEMENT_SET_NO":"999","REV_AT_EPOCH":"7639","MEAN_MOTION_DDOT":"0.0000000000000","OBJECT_NAME":"STARLINK-1379","MEAN_MOTION":"15.06390882","INCLINATION":"53.0541","CLASSIFICATION_TYPE":"U","TLE_LINE1":"1 45549U 20025U   21244.70528442  .00001157  00000-0  96589-4 0  9996","TIME_SYSTEM":"UTC","TLE_LINE2":"2 45549  53.0541 313.6985 0001048 107.0710 253.0394 15.06390882 76394","ARG_OF_PERICENTER":"107.0710","RCS_SIZE":"LARGE","SEMIMAJOR_AXIS":"6925.377","APOAPSIS":"547.967","PERIOD":"95.593","OBJECT_TYPE":"PAYLOAD","ECCENTRICITY":"0.00010480","EPOCH":"2021-09-01T16:55:36.573888"},{"LAUNCH_DATE":"2020-04-22","MEAN_MOTION_DOT":"0.00003489","FILE":"3106942","REF_FRAME":"TEME","MEAN_ELEMENT_THEORY":"SGP4","COUNTRY_CODE":"US","BSTAR":"0.00025305000000","GP_ID":"183874905","DECAY_DATE":null,"EPHEMERIS_TYPE":"0","NORAD_CAT_ID":"45550","OBJECT_ID":"2020-025V","PERIAPSIS":"546.593","RA_OF_ASC_NODE":"314.5282","MEAN_ANOMALY":"248.2106","MEAN_MOTION":"15.06392924","CENTER_NAME":"EARTH","SITE":"AFETR","ELEMENT_SET_NO":"999","REV_AT_EPOCH":"7636","MEAN_MOTION_DDOT":"0.0000000000000","OBJECT_NAME":"STARLINK-1390","RCS_SIZE":"LARGE","INCLINATION":"53.0553","CLASSIFICATION_TYPE":"U","TIME_SYSTEM":"UTC","TLE_LINE1":"1 45550U 20025V   21244.52004944  .00003489  00000-0  25305-3 0  9991","TLE_LINE2":"2 45550  53.0553 314.5282 0000928 111.8982 248.2106 15.06392924 76362","ARG_OF_PERICENTER":"111.8982","APOAPSIS":"547.878","SEMIMAJOR_AXIS":"6925.370","ECCENTRICITY":"0.00009280","EPOCH":"2021-09-01T12:28:52.271616","PERIOD":"95.593","OBJECT_TYPE":"PAYLOAD"},{"ARG_OF_PERICENTER":"89.5421","TLE_LINE2":"2 45551  53.0554 293.9212 0001090  89.5421 270.5693 15.06378572 76673","TLE_LINE1":"1 45551U 20025W   21244.65554797  .00001160  00000-0  96800-4 0  9995","TIME_SYSTEM":"UTC","INCLINATION":"53.0554","CLASSIFICATION_TYPE":"U","RCS_SIZE":"LARGE","OBJECT_NAME":"STARLINK-1294","MEAN_MOTION_DDOT":"0.0000000000000","REV_AT_EPOCH":"7667","ELEMENT_SET_NO":"999","SITE":"AFETR","CENTER_NAME":"EARTH","MEAN_MOTION":"15.06378572","OBJECT_TYPE":"PAYLOAD","PERIOD":"95.593","EPOCH":"2021-09-01T15:43:59.344608","ECCENTRICITY":"0.00010900","SEMIMAJOR_AXIS":"6925.414","APOAPSIS":"548.034","GP_ID":"183925172","BSTAR":"0.00009680000000","COUNTRY_CODE":"US","MEAN_ELEMENT_THEORY":"SGP4","REF_FRAME":"TEME","FILE":"3107096","MEAN_MOTION_DOT":"0.00001160","LAUNCH_DATE":"2020-04-22","MEAN_ANOMALY":"270.5693","RA_OF_ASC_NODE":"293.9212","PERIAPSIS":"546.524","OBJECT_ID":"2020-025W","NORAD_CAT_ID":"45551","EPHEMERIS_TYPE":"0","DECAY_DATE":null}];
